FENGYUN 1C DEB          
1 30137U 99025SS  17345.61465438  .00003558  00000-0  43484-3 0  9993
2 30137  99.1017  12.3787 0061810 236.4203 248.1565 14.82723682578595
